FENGYUN 1C DEB          
1 36160U 99025DSH 17343.37301704  .00000144  00000-0  94098-4 0  9997
2 36160  98.1994  36.0025 0137690 306.9427  51.9200 14.10651437508575
